{
  "type": "FeatureCollection",
  "features": [
    {
      "type": "Feature",
      "geometry": {
        "type": "Polygon",
        "coordinates": [
          [
            [
              91.4735187,
              31.9295229
            ],
            [
              91.4682914,
              31.9315588
            ],
            [
              91.4557601,
              31.9368033
            ],
            [
              91.4468337,
              31.9440869
            ],
            [
              91.4397956,
              31.9499133
            ],
            [
              91.4385939,
              31.9520982
            ],
            [
              91.4384223,
              31.953846
            ],
            [
              91.4346457,
              31.9571959
            ],
            [
              91.4331008,
              31.9606913
            ],
            [
              91.4306975,
              31.9663711
            ],
            [
              91.4301825,
              31.9684099
            ],
            [
              91.4303542,
              31.9707399
            ],
            [
              91.4303542,
              31.9726329
            ],
            [
              91.4315558,
              31.974526
            ],
            [
              91.4320708,
              31.9767102
            ],
            [
              91.4312125,
              31.9796225
            ],
            [
              91.4315558,
              31.9815154
            ],
            [
              91.4300109,
              31.9841362
            ],
            [
              91.4300109,
              31.9858835
            ],
            [
              91.4308692,
              31.9899602
            ],
            [
              91.4303542,
              31.9933087
            ],
            [
              91.4298105,
              31.9942463
            ],
            [
              91.4301182,
              31.9967118
            ],
            [
              91.4315558,
              31.9975307
            ],
            [
              91.4329935,
              31.9988409
            ],
            [
              91.433251,
              31.9997507
            ],
            [
              91.4328146,
              32.0008339
            ],
            [
              91.4296676,
              32.0053917
            ],
            [
              91.4286376,
              32.0078664
            ],
            [
              91.426406,
              32.0100498
            ],
            [
              91.4222861,
              32.0131065
            ],
            [
              91.419033,
              32.0159213
            ],
            [
              91.4176555,
              32.0172466
            ],
            [
              91.4162506,
              32.0197255
            ],
            [
              91.4156188,
              32.0218259
            ],
            [
              91.4149284,
              32.0233868
            ],
            [
              91.4150037,
              32.0239915
            ],
            [
              91.4154233,
              32.0243472
            ],
            [
              91.4166282,
              32.0266073
            ],
            [
              91.4166129,
              32.027154
            ],
            [
              91.4160863,
              32.0285305
            ],
            [
              91.4159436,
              32.0304584
            ],
            [
              91.4165122,
              32.0323269
            ],
            [
              91.4174796,
              32.0349374
            ],
            [
              91.4181662,
              32.0363926
            ],
            [
              91.4181662,
              32.0393029
            ],
            [
              91.4202262,
              32.0441048
            ],
            [
              91.4202262,
              32.0465784
            ],
            [
              91.4200545,
              32.0544352
            ],
            [
              91.4205695,
              32.0577814
            ],
            [
              91.4209128,
              32.0647644
            ],
            [
              91.4229728,
              32.0707287
            ],
            [
              91.426921,
              32.0794562
            ],
            [
              91.4293242,
              32.0832378
            ],
            [
              91.4348174,
              32.0868738
            ],
            [
              91.4403106,
              32.0893463
            ],
            [
              91.4435721,
              32.0934184
            ],
            [
              91.4507819,
              32.0983628
            ],
            [
              91.4579917,
              32.1014166
            ],
            [
              91.4645148,
              32.1044703
            ],
            [
              91.4682914,
              32.1082509
            ],
            [
              91.4773894,
              32.1188648
            ],
            [
              91.4844275,
              32.1216272
            ],
            [
              91.4895774,
              32.1220633
            ],
            [
              91.4935256,
              32.1239533
            ],
            [
              91.4950705,
              32.1233717
            ],
            [
              91.4973021,
              32.1238079
            ],
            [
              91.4983321,
              32.124244
            ],
            [
              91.4995337,
              32.1226448
            ],
            [
              91.501422,
              32.1197371
            ],
            [
              91.5039969,
              32.1184287
            ],
            [
              91.5084601,
              32.1179925
            ],
            [
              91.5096618,
              32.1175563
            ],
            [
              91.5103484,
              32.1149393
            ],
            [
              91.513095,
              32.1145031
            ],
            [
              91.5134383,
              32.1118859
            ],
            [
              91.5153266,
              32.1118859
            ],
            [
              91.5182448,
              32.1110135
            ],
            [
              91.5208197,
              32.1111589
            ],
            [
              91.5239097,
              32.1123221
            ],
            [
              91.5249396,
              32.1113043
            ],
            [
              91.5268279,
              32.1114497
            ],
            [
              91.527177,
              32.1110431
            ],
            [
              91.5282012,
              32.1098503
            ],
            [
              91.5268279,
              32.1092687
            ],
            [
              91.5268279,
              32.1078147
            ],
            [
              91.5254546,
              32.1067968
            ],
            [
              91.524768,
              32.1047611
            ],
            [
              91.5251113,
              32.1014166
            ],
            [
              91.5282012,
              32.1008349
            ],
            [
              91.5295745,
              32.1012712
            ],
            [
              91.5309478,
              32.1009803
            ],
            [
              91.5319777,
              32.0999624
            ],
            [
              91.5307761,
              32.0995262
            ],
            [
              91.5306044,
              32.0982174
            ],
            [
              91.5324927,
              32.0966177
            ],
            [
              91.532836,
              32.0944364
            ],
            [
              91.5340377,
              32.0908006
            ],
            [
              91.5345527,
              32.0902189
            ],
            [
              91.5367843,
              32.0906552
            ],
            [
              91.5376426,
              32.0892008
            ],
            [
              91.535411,
              32.0880373
            ],
            [
              91.5352393,
              32.0870193
            ],
            [
              91.5364409,
              32.0842559
            ],
            [
              91.5391875,
              32.082656
            ],
            [
              91.5397025,
              32.0812015
            ],
            [
              91.5357543,
              32.0798925
            ],
            [
              91.535411,
              32.076838
            ],
            [
              91.534381,
              32.0759653
            ],
            [
              91.534381,
              32.0743652
            ],
            [
              91.5360976,
              32.0736379
            ],
            [
              91.5372992,
              32.0723288
            ],
            [
              91.5359259,
              32.0704378
            ],
            [
              91.5359259,
              32.0684012
            ],
            [
              91.5369559,
              32.0673829
            ],
            [
              91.5367843,
              32.0654918
            ],
            [
              91.5376426,
              32.0641825
            ],
            [
              91.5391875,
              32.0628733
            ],
            [
              91.5405608,
              32.0628733
            ],
            [
              91.5426207,
              32.0618549
            ],
            [
              91.5457106,
              32.061564
            ],
            [
              91.5470839,
              32.0604001
            ],
            [
              91.5489722,
              32.0574904
            ],
            [
              91.5493155,
              32.0553081
            ],
            [
              91.5486289,
              32.0529803
            ],
            [
              91.543994,
              32.0499249
            ],
            [
              91.5409041,
              32.0470149
            ],
            [
              91.5381575,
              32.0467239
            ],
            [
              91.5371276,
              32.0448323
            ],
            [
              91.5360976,
              32.0397395
            ],
            [
              91.535411,
              32.0371202
            ],
            [
              91.5338467,
              32.0351971
            ],
            [
              91.5329388,
              32.0331006
            ],
            [
              91.5322454,
              32.030738
            ],
            [
              91.5302611,
              32.0262057
            ],
            [
              91.5269996,
              32.0176187
            ],
            [
              91.5261413,
              32.011651
            ],
            [
              91.5251888,
              32.0087264
            ],
            [
              91.5238966,
              32.0076935
            ],
            [
              91.5239655,
              32.006539
            ],
            [
              91.5242908,
              32.0054149
            ],
            [
              91.5240405,
              32.0045833
            ],
            [
              91.5242881,
              32.0038662
            ],
            [
              91.5247572,
              32.0033979
            ],
            [
              91.5246871,
              32.0025304
            ],
            [
              91.5255731,
              31.9991262
            ],
            [
              91.5252638,
              31.9956641
            ],
            [
              91.5221861,
              31.9862087
            ],
            [
              91.5219673,
              31.9843654
            ],
            [
              91.5213522,
              31.9827505
            ],
            [
              91.5213844,
              31.981256
            ],
            [
              91.519985,
              31.9774694
            ],
            [
              91.5192748,
              31.9740891
            ],
            [
              91.5172149,
              31.9700117
            ],
            [
              91.5168558,
              31.9688941
            ],
            [
              91.5168105,
              31.9669418
            ],
            [
              91.5154982,
              31.9637497
            ],
            [
              91.5163566,
              31.9627302
            ],
            [
              91.5154982,
              31.9598174
            ],
            [
              91.5150146,
              31.9581445
            ],
            [
              91.5155244,
              31.9573142
            ],
            [
              91.51361,
              31.9529721
            ],
            [
              91.5125887,
              31.9503909
            ],
            [
              91.5127761,
              31.9488088
            ],
            [
              91.5122367,
              31.9461262
            ],
            [
              91.512065,
              31.9442326
            ],
            [
              91.5129479,
              31.9432129
            ],
            [
              91.5127409,
              31.94213
            ],
            [
              91.5120544,
              31.9404239
            ],
            [
              91.5122367,
              31.9401538
            ],
            [
              91.5118934,
              31.937386
            ],
            [
              91.5119318,
              31.9360545
            ],
            [
              91.5125065,
              31.9343476
            ],
            [
              91.5124575,
              31.9312466
            ],
            [
              91.5139533,
              31.9287907
            ],
            [
              91.5133893,
              31.9275419
            ],
            [
              91.5102749,
              31.9235456
            ],
            [
              91.5096143,
              31.9231951
            ],
            [
              91.5088035,
              31.9231086
            ],
            [
              91.5030206,
              31.9216334
            ],
            [
              91.5013611,
              31.921315
            ],
            [
              91.4993334,
              31.921397
            ],
            [
              91.4996982,
              31.9211602
            ],
            [
              91.5013182,
              31.9210054
            ],
            [
              91.5043545,
              31.9213515
            ],
            [
              91.5048802,
              31.9210419
            ],
            [
              91.5047836,
              31.9205592
            ],
            [
              91.5044081,
              31.9202678
            ],
            [
              91.5009427,
              31.9194755
            ],
            [
              91.4987647,
              31.91943
            ],
            [
              91.4984858,
              31.9203771
            ],
            [
              91.4989793,
              31.9207322
            ],
            [
              91.4991188,
              31.920969
            ],
            [
              91.4985609,
              31.9214516
            ],
            [
              91.4973915,
              31.921825
            ],
            [
              91.496855,
              31.9220709
            ],
            [
              91.4966512,
              31.9211329
            ],
            [
              91.4960503,
              31.920368
            ],
            [
              91.4955461,
              31.9202223
            ],
            [
              91.4952671,
              31.9199491
            ],
            [
              91.4935505,
              31.9196486
            ],
            [
              91.4927351,
              31.919603
            ],
            [
              91.4899135,
              31.9204499
            ],
            [
              91.488626,
              31.9208506
            ],
            [
              91.4874995,
              31.9220982
            ],
            [
              91.4876926,
              31.9233002
            ],
            [
              91.4881432,
              31.9239194
            ],
            [
              91.4867592,
              31.9251943
            ],
            [
              91.4866948,
              31.9254401
            ],
            [
              91.4867806,
              31.925604
            ],
            [
              91.4870489,
              31.9255221
            ],
            [
              91.4874995,
              31.9250759
            ],
            [
              91.4876175,
              31.9252216
            ],
            [
              91.4870059,
              31.9259956
            ],
            [
              91.4880574,
              31.9267787
            ],
            [
              91.4876389,
              31.9273342
            ],
            [
              91.4881217,
              31.9272886
            ],
            [
              91.4887547,
              31.9269517
            ],
            [
              91.4895809,
              31.9267696
            ],
            [
              91.4896989,
              31.9264782
            ],
            [
              91.4900744,
              31.9264782
            ],
            [
              91.4905035,
              31.926114
            ],
            [
              91.490643,
              31.9262597
            ],
            [
              91.4901138,
              31.9269149
            ],
            [
              91.4880324,
              31.9274795
            ],
            [
              91.4838482,
              31.9275341
            ],
            [
              91.4805364,
              31.9279078
            ],
            [
              91.4789808,
              31.9282447
            ],
            [
              91.4784872,
              31.9280808
            ],
            [
              91.4791417,
              31.92758
            ],
            [
              91.4791095,
              31.9269244
            ],
            [
              91.47897,
              31.9263963
            ],
            [
              91.4782941,
              31.9257953
            ],
            [
              91.4776611,
              31.925513
            ],
            [
              91.477114,
              31.9254857
            ],
            [
              91.4767706,
              31.9255767
            ],
            [
              91.4759231,
              31.9257315
            ],
            [
              91.4735091,
              31.9271247
            ],
            [
              91.4727688,
              31.927926
            ],
            [
              91.4725757,
              31.9288912
            ],
            [
              91.4724147,
              31.9289368
            ],
            [
              91.4719105,
              31.9284997
            ],
            [
              91.4707947,
              31.9288366
            ],
            [
              91.4696789,
              31.9297198
            ],
            [
              91.4690781,
              31.9303026
            ],
            [
              91.4688098,
              31.9310766
            ],
            [
              91.4695287,
              31.9308489
            ],
            [
              91.4703548,
              31.9304938
            ],
            [
              91.4713418,
              31.9300841
            ],
            [
              91.4717388,
              31.9300021
            ],
            [
              91.4721572,
              31.9295104
            ],
            [
              91.4725435,
              31.9296288
            ],
            [
              91.4729297,
              31.9294831
            ],
            [
              91.4734983,
              31.9294011
            ],
            [
              91.4743245,
              31.9291462
            ],
            [
              91.4735187,
              31.9295229
            ]
          ]
        ]
      },
      "properties": {
        "name": "错那湖",
        "category": "lake",
        "light": true,
        "sign": true,
        "note": "湖泊加灯+标牌",
        "source": "OpenStreetMap",
        "osm_id": 25314186
      }
    }
  ],
  "properties": {
    "category": "lake"
  }
}