{
  "type": "FeatureCollection",
  "features": [
    {
      "type": "Feature",
      "geometry": {
        "type": "LineString",
        "coordinates": [
          [
            92.0707029,
            32.6719024
          ],
          [
            92.0704723,
            32.671794
          ],
          [
            92.0702041,
            32.6714915
          ],
          [
            92.0701504,
            32.6703535
          ],
          [
            92.0699358,
            32.6692201
          ],
          [
            92.0701396,
            32.668615
          ],
          [
            92.0701289,
            32.6682718
          ],
          [
            92.0699572,
            32.6679376
          ],
          [
            92.0694852,
            32.6676576
          ],
          [
            92.0688522,
            32.6674228
          ],
          [
            92.0682835,
            32.6673596
          ],
          [
            92.0675325,
            32.6672783
          ],
          [
            92.0666742,
            32.6676576
          ],
          [
            92.0664704,
            32.6678202
          ],
          [
            92.0660305,
            32.6680911
          ],
          [
            92.0656764,
            32.6682176
          ],
          [
            92.0653331,
            32.6682176
          ],
          [
            92.064743,
            32.668064
          ],
          [
            92.0643139,
            32.6678563
          ],
          [
            92.0639169,
            32.6672331
          ],
          [
            92.063756,
            32.6668177
          ],
          [
            92.0633912,
            32.6662938
          ],
          [
            92.0629996,
            32.6658873
          ],
          [
            92.0626348,
            32.6655713
          ],
          [
            92.0619965,
            32.6653048
          ],
          [
            92.0615619,
            32.6653816
          ],
          [
            92.0609396,
            32.6657564
          ],
          [
            92.0605642,
            32.6657744
          ],
          [
            92.0598507,
            32.6656165
          ],
          [
            92.0594859,
            32.6654448
          ],
          [
            92.0590943,
            32.6651513
          ],
          [
            92.0588529,
            32.6648171
          ],
          [
            92.0585525,
            32.66437
          ],
          [
            92.0582735,
            32.6642843
          ],
          [
            92.05778,
            32.6644513
          ],
          [
            92.0574367,
            32.6645507
          ],
          [
            92.057088,
            32.6643565
          ],
          [
            92.0568627,
            32.6639546
          ],
          [
            92.0566696,
            32.6636023
          ],
          [
            92.056514,
            32.6632274
          ],
          [
            92.056514,
            32.6627758
          ],
          [
            92.0571256,
            32.6623648
          ],
          [
            92.0577585,
            32.6618501
          ],
          [
            92.0578123,
            32.6614932
          ],
          [
            92.0579517,
            32.6609197
          ],
          [
            92.0578766,
            32.6605765
          ],
          [
            92.0580804,
            32.6602965
          ],
          [
            92.058413,
            32.6601881
          ],
          [
            92.0589065,
            32.6600978
          ],
          [
            92.0593679,
            32.6601339
          ],
          [
            92.0599472,
            32.6600345
          ],
          [
            92.060253,
            32.6597003
          ],
          [
            92.0602101,
            32.6590906
          ],
          [
            92.0598775,
            32.6583454
          ],
          [
            92.0599687,
            32.6577809
          ],
          [
            92.0603174,
            32.6569905
          ],
          [
            92.0603978,
            32.6565841
          ],
          [
            92.0601511,
            32.655744
          ],
          [
            92.0593464,
            32.6546781
          ],
          [
            92.0584237,
            32.6537658
          ],
          [
            92.0572865,
            32.6524198
          ],
          [
            92.0551944,
            32.6509745
          ],
          [
            92.0539713,
            32.6505409
          ],
          [
            92.0534563,
            32.649764
          ],
          [
            92.0533061,
            32.6484993
          ],
          [
            92.0521474,
            32.6481199
          ],
          [
            92.0505595,
            32.6471623
          ],
          [
            92.050302,
            32.64653
          ],
          [
            92.0491218,
            32.6453014
          ],
          [
            92.0488268,
            32.6453014
          ],
          [
            92.0480919,
            32.6453014
          ],
          [
            92.0469117,
            32.6453194
          ],
          [
            92.0451093,
            32.6443076
          ],
          [
            92.043972,
            32.6426453
          ],
          [
            92.0438218,
            32.6419045
          ],
          [
            92.0433926,
            32.6410192
          ],
          [
            92.0425987,
            32.6407301
          ],
          [
            92.0417189,
            32.6408385
          ],
          [
            92.0409035,
            32.6410192
          ],
          [
            92.0404959,
            32.6406397
          ],
          [
            92.0391869,
            32.6402241
          ],
          [
            92.0380711,
            32.6406939
          ],
          [
            92.0371699,
            32.640712
          ],
          [
            92.0366764,
            32.6401157
          ],
          [
            92.0360112,
            32.6396821
          ],
          [
            92.0348739,
            32.6392484
          ],
          [
            92.0337796,
            32.6385798
          ],
          [
            92.0328569,
            32.6378571
          ],
          [
            92.0317411,
            32.6373331
          ],
          [
            92.0313978,
            32.6368452
          ],
          [
            92.0309686,
            32.6358875
          ],
          [
            92.0303678,
            32.6348936
          ],
          [
            92.0307755,
            32.633448
          ],
          [
            92.0308184,
            32.6332673
          ],
          [
            92.0307863,
            32.63268
          ],
          [
            92.0304859,
            32.6323638
          ],
          [
            92.0300567,
            32.6319301
          ],
          [
            92.0299494,
            32.6314422
          ],
          [
            92.0304215,
            32.6304664
          ],
          [
            92.0304966,
            32.6298248
          ],
          [
            92.0301318,
            32.6290659
          ],
          [
            92.0295954,
            32.6282798
          ],
          [
            92.029413,
            32.6268069
          ],
          [
            92.0289194,
            32.6261744
          ],
          [
            92.0289409,
            32.6255961
          ],
          [
            92.0291448,
            32.6246022
          ],
          [
            92.0291555,
            32.62406
          ],
          [
            92.0290375,
            32.6234998
          ],
          [
            92.0285225,
            32.6232377
          ],
          [
            92.027632,
            32.6230389
          ],
          [
            92.0270312,
            32.62256
          ],
          [
            92.0267844,
            32.6214033
          ],
          [
            92.0266127,
            32.6207346
          ],
          [
            92.0263767,
            32.6203099
          ],
          [
            92.0261943,
            32.6200388
          ],
          [
            92.026087,
            32.6195147
          ],
          [
            92.0261085,
            32.6192978
          ],
          [
            92.0262265,
            32.6190087
          ],
          [
            92.0262051,
            32.6186111
          ],
          [
            92.0257115,
            32.6183309
          ],
          [
            92.0250249,
            32.617852
          ],
          [
            92.0243275,
            32.6174001
          ],
          [
            92.0240164,
            32.6165868
          ],
          [
            92.023716,
            32.6161169
          ],
          [
            92.0233405,
            32.6151319
          ],
          [
            92.0226538,
            32.6140655
          ],
          [
            92.0218599,
            32.613451
          ],
          [
            92.0202613,
            32.6126828
          ],
          [
            92.0200574,
            32.6124659
          ],
          [
            92.0199931,
            32.6121496
          ],
          [
            92.0200682,
            32.6116977
          ],
          [
            92.0201325,
            32.6113001
          ],
          [
            92.0198643,
            32.6110471
          ],
          [
            92.0194459,
            32.6109476
          ],
          [
            92.0186841,
            32.6109476
          ],
          [
            92.018019,
            32.6109296
          ],
          [
            92.0173538,
            32.6108121
          ],
          [
            92.0166349,
            32.6106313
          ],
          [
            92.0160663,
            32.6106675
          ],
          [
            92.0157766,
            32.6109748
          ],
          [
            92.015326,
            32.6110651
          ],
          [
            92.0147467,
            32.6108844
          ],
          [
            92.014178,
            32.6107217
          ],
          [
            92.0135236,
            32.6108302
          ],
          [
            92.0128798,
            32.6109115
          ],
          [
            92.0118821,
            32.6109838
          ],
          [
            92.0114636,
            32.6109748
          ],
          [
            92.0107019,
            32.6111917
          ],
          [
            92.0099938,
            32.6112278
          ],
          [
            92.0091033,
            32.6110832
          ],
          [
            92.0083523,
            32.6112188
          ],
          [
            92.0078909,
            32.6116526
          ],
          [
            92.0072472,
            32.6118785
          ],
          [
            92.0063567,
            32.6118604
          ],
          [
            92.0054448,
            32.6119689
          ],
          [
            92.00508,
            32.6122038
          ],
          [
            92.0045435,
            32.6123575
          ],
          [
            92.0039534,
            32.6124298
          ],
          [
            92.0030522,
            32.6122761
          ],
          [
            92.0023978,
            32.6122038
          ],
          [
            92.0018828,
            32.6123304
          ],
          [
            92.0013571,
            32.6124388
          ],
          [
            92.0004129,
            32.6119779
          ],
          [
            91.9997477,
            32.6118785
          ],
          [
            91.9992649,
            32.6117339
          ],
          [
            91.9987178,
            32.6112549
          ],
          [
            91.9983315,
            32.6108573
          ],
          [
            91.9977522,
            32.6106856
          ],
          [
            91.9970333,
            32.6105048
          ],
          [
            91.995542,
            32.6102246
          ],
          [
            91.99507,
            32.6101523
          ],
          [
            91.9945979,
            32.6099083
          ],
          [
            91.9945013,
            32.6098089
          ],
          [
            91.9938791,
            32.6091492
          ],
          [
            91.9934392,
            32.6088871
          ],
          [
            91.9930208,
            32.6084442
          ],
          [
            91.9928169,
            32.6080375
          ],
          [
            91.9926989,
            32.6071247
          ],
          [
            91.992259,
            32.606474
          ],
          [
            91.9918299,
            32.6062752
          ],
          [
            91.9909286,
            32.60623
          ],
          [
            91.9904029,
            32.6059679
          ],
          [
            91.990006,
            32.6056154
          ],
          [
            91.989491,
            32.6047929
          ],
          [
            91.9890833,
            32.6045218
          ],
          [
            91.9885898,
            32.603609
          ],
          [
            91.988343,
            32.6034101
          ],
          [
            91.9879782,
            32.6032113
          ],
          [
            91.9878387,
            32.6028136
          ],
          [
            91.9875383,
            32.6020905
          ],
          [
            91.9871843,
            32.6011596
          ],
          [
            91.9869268,
            32.60031
          ],
          [
            91.986841,
            32.5995869
          ],
          [
            91.9869912,
            32.5992886
          ],
          [
            91.9872916,
            32.5989723
          ],
          [
            91.9875598,
            32.5982492
          ],
          [
            91.9873989,
            32.5973091
          ],
          [
            91.9874847,
            32.5970832
          ],
          [
            91.9877851,
            32.596803
          ],
          [
            91.9880748,
            32.5964324
          ],
          [
            91.9883215,
            32.5961612
          ],
          [
            91.9886327,
            32.5957996
          ],
          [
            91.9888794,
            32.5951669
          ],
          [
            91.9886112,
            32.5945794
          ],
          [
            91.9879031,
            32.5938201
          ],
          [
            91.9878387,
            32.593567
          ],
          [
            91.9878816,
            32.5931512
          ],
          [
            91.9881928,
            32.5928077
          ],
          [
            91.9886005,
            32.5926631
          ],
          [
            91.9888902,
            32.5924732
          ],
          [
            91.989212,
            32.5920936
          ],
          [
            91.9894373,
            32.5916778
          ],
          [
            91.989609,
            32.5911987
          ],
          [
            91.9894051,
            32.5905569
          ],
          [
            91.9885898,
            32.5895445
          ],
          [
            91.9883323,
            32.5891286
          ],
          [
            91.9882464,
            32.5887309
          ],
          [
            91.9880211,
            32.5880981
          ],
          [
            91.9878387,
            32.5875376
          ],
          [
            91.9873559,
            32.5870405
          ],
          [
            91.9869268,
            32.5867241
          ],
          [
            91.9863903,
            32.5863625
          ],
          [
            91.9859719,
            32.5857116
          ],
          [
            91.9857573,
            32.5855127
          ],
          [
            91.9856715,
            32.5850788
          ],
          [
            91.9861007,
            32.5845635
          ],
          [
            91.9861007,
            32.58356
          ],
          [
            91.9859505,
            32.5828188
          ],
          [
            91.986047,
            32.5821046
          ],
          [
            91.9861865,
            32.5811011
          ],
          [
            91.9867015,
            32.5804321
          ],
          [
            91.9874954,
            32.5796365
          ],
          [
            91.9877958,
            32.5791122
          ],
          [
            91.9880962,
            32.5779911
          ],
          [
            91.9877958,
            32.5771955
          ],
          [
            91.9873452,
            32.5763638
          ],
          [
            91.987431,
            32.5758032
          ],
          [
            91.9879675,
            32.5754235
          ],
          [
            91.9883752,
            32.5745013
          ],
          [
            91.9876241,
            32.5726931
          ],
          [
            91.9874954,
            32.5721868
          ],
          [
            91.9873237,
            32.5714092
          ],
          [
            91.9872594,
            32.5706136
          ],
          [
            91.9872594,
            32.5698902
          ],
          [
            91.9870662,
            32.569402
          ],
          [
            91.9869375,
            32.5684978
          ],
          [
            91.9868946,
            32.5677202
          ],
          [
            91.9862294,
            32.567015
          ],
          [
            91.9865513,
            32.5664544
          ],
          [
            91.9869804,
            32.5658395
          ],
          [
            91.9871735,
            32.565297
          ],
          [
            91.9870662,
            32.5646098
          ],
          [
            91.9870877,
            32.5640311
          ],
          [
            91.9877314,
            32.5635067
          ],
          [
            91.9885039,
            32.5631088
          ],
          [
            91.989212,
            32.5625663
          ],
          [
            91.9894051,
            32.5619152
          ],
          [
            91.9894266,
            32.5608844
          ],
          [
            91.9889545,
            32.5607397
          ],
          [
            91.9888258,
            32.5600163
          ],
          [
            91.9891262,
            32.5594738
          ],
          [
            91.9898987,
            32.5589493
          ],
          [
            91.9896197,
            32.5583705
          ],
          [
            91.9894266,
            32.5579908
          ],
          [
            91.9895339,
            32.5574482
          ],
          [
            91.9899416,
            32.5568875
          ],
          [
            91.9903707,
            32.556345
          ],
          [
            91.9904351,
            32.5557843
          ],
          [
            91.9898557,
            32.5554587
          ],
          [
            91.9899845,
            32.5549342
          ],
          [
            91.9909072,
            32.5540661
          ],
          [
            91.9908428,
            32.5530713
          ],
          [
            91.9906282,
            32.5526192
          ],
          [
            91.9908857,
            32.5522032
          ],
          [
            91.9909501,
            32.5515702
          ],
          [
            91.991229,
            32.5510095
          ],
          [
            91.991744,
            32.5492188
          ],
          [
            91.9917011,
            32.549038
          ],
          [
            91.9915509,
            32.5480251
          ],
          [
            91.9924307,
            32.5471388
          ],
          [
            91.9925809,
            32.5466685
          ],
          [
            91.9923663,
            32.5453842
          ],
          [
            91.9925165,
            32.5439915
          ],
          [
            91.9923663,
            32.5437563
          ],
          [
            91.9919801,
            32.543286
          ],
          [
            91.9917869,
            32.5427433
          ],
          [
            91.9927311,
            32.542273
          ],
          [
            91.9936967,
            32.5422369
          ],
          [
            91.9948125,
            32.5418389
          ],
          [
            91.9957781,
            32.540627
          ],
          [
            91.9963145,
            32.5400662
          ],
          [
            91.9970011,
            32.5394873
          ],
          [
            91.9978165,
            32.5390351
          ],
          [
            91.9984817,
            32.538818
          ],
          [
            91.9989323,
            32.5385286
          ],
          [
            91.9989538,
            32.5379316
          ],
          [
            91.9990825,
            32.5374613
          ],
          [
            91.9996834,
            32.5372262
          ],
          [
            92.0004344,
            32.5370814
          ],
          [
            92.000606,
            32.5362312
          ],
          [
            92.0006704,
            32.5356342
          ],
          [
            92.0009708,
            32.5349287
          ],
          [
            92.0015287,
            32.5342594
          ],
          [
            92.0023012,
            32.5334272
          ],
          [
            92.0030308,
            32.532975
          ],
          [
            92.003417,
            32.5324684
          ],
          [
            92.0032453,
            32.5317629
          ],
          [
            92.0033312,
            32.5309488
          ],
          [
            92.0031595,
            32.530189
          ],
          [
            92.003181,
            32.5295196
          ],
          [
            92.0034814,
            32.5290854
          ],
          [
            92.0043611,
            32.5288321
          ],
          [
            92.0048547,
            32.5285427
          ],
          [
            92.0051336,
            32.527819
          ],
          [
            92.0051551,
            32.52762
          ],
          [
            92.0052624,
            32.5269687
          ],
          [
            92.0057344,
            32.5267154
          ],
          [
            92.006185,
            32.5264621
          ],
          [
            92.0062923,
            32.5259194
          ],
          [
            92.0060777,
            32.5254309
          ],
          [
            92.0061207,
            32.5250509
          ],
          [
            92.0062065,
            32.5244177
          ],
          [
            92.0062279,
            32.5237845
          ],
          [
            92.006464,
            32.5233141
          ],
          [
            92.0068288,
            32.522717
          ],
          [
            92.006979,
            32.5221381
          ],
          [
            92.0071292,
            32.5216857
          ],
          [
            92.0076871,
            32.521161
          ],
          [
            92.0084166,
            32.5206725
          ],
          [
            92.008481,
            32.5199669
          ],
          [
            92.0086097,
            32.5192432
          ],
          [
            92.0098114,
            32.5188089
          ],
          [
            92.0107984,
            32.51823
          ],
          [
            92.0112276,
            32.5171081
          ],
          [
            92.0119142,
            32.5161311
          ],
          [
            92.0130729,
            32.5145388
          ],
          [
            92.0134446,
            32.5132694
          ],
          [
            92.0135021,
            32.5130731
          ],
          [
            92.0130515,
            32.5118246
          ],
          [
            92.0129227,
            32.5111008
          ],
          [
            92.0127296,
            32.510377
          ],
          [
            92.0123434,
            32.509617
          ],
          [
            92.0117855,
            32.5095808
          ],
          [
            92.0111632,
            32.5096894
          ],
          [
            92.0107126,
            32.5092913
          ],
          [
            92.010777,
            32.5086398
          ],
          [
            92.0111203,
            32.5075541
          ],
          [
            92.0111847,
            32.5068665
          ],
          [
            92.0103693,
            32.505274
          ],
          [
            92.0108413,
            32.5047673
          ],
          [
            92.0111417,
            32.5038987
          ],
          [
            92.0106697,
            32.5031025
          ],
          [
            92.0101118,
            32.5022338
          ],
          [
            92.0092105,
            32.5011842
          ],
          [
            92.0093393,
            32.5003879
          ],
          [
            92.0102834,
            32.4993745
          ],
          [
            92.0110988,
            32.4985782
          ],
          [
            92.012515,
            32.4977095
          ],
          [
            92.0132017,
            32.4969856
          ],
          [
            92.0141029,
            32.495031
          ],
          [
            92.020905,
            32.4876285
          ],
          [
            92.021892,
            32.4870131
          ],
          [
            92.0231366,
            32.4865787
          ],
          [
            92.0244026,
            32.4865787
          ],
          [
            92.0255828,
            32.4863072
          ],
          [
            92.0265698,
            32.4857461
          ],
          [
            92.0270848,
            32.4850945
          ],
          [
            92.0271706,
            32.4841895
          ],
          [
            92.0278787,
            32.483375
          ],
          [
            92.0296597,
            32.4820356
          ],
          [
            92.0306468,
            32.4808047
          ],
          [
            92.0309043,
            32.4800263
          ],
          [
            92.0314836,
            32.4793385
          ],
          [
            92.0320415,
            32.4784877
          ],
          [
            92.0321488,
            32.4778723
          ],
          [
            92.0316338,
            32.4772568
          ],
          [
            92.0307755,
            32.4767138
          ],
          [
            92.0308184,
            32.4761526
          ],
          [
            92.0311832,
            32.4755733
          ],
          [
            92.0318699,
            32.4752294
          ],
          [
            92.0321274,
            32.474813
          ],
          [
            92.0319557,
            32.4743062
          ],
          [
            92.0312261,
            32.473564
          ],
          [
            92.030367,
            32.4720906
          ],
          [
            92.0299115,
            32.4714929
          ],
          [
            92.0298188,
            32.4708525
          ],
          [
            92.0300127,
            32.4703046
          ],
          [
            92.0301224,
            32.4693511
          ],
          [
            92.0303923,
            32.4690096
          ],
          [
            92.0312104,
            32.4683051
          ],
          [
            92.0316068,
            32.4673303
          ]
        ]
      },
      "properties": {
        "name": "怒江",
        "category": "river",
        "light": true,
        "sign": true,
        "note": "河流加灯+标牌",
        "source": "OpenStreetMap",
        "osm_id": 835987385
      }
    },
    {
      "type": "Feature",
      "geometry": {
        "type": "LineString",
        "coordinates": [
          [
            90.7519924,
            32.4757864
          ],
          [
            90.7478213,
            32.4767319
          ],
          [
            90.7461262,
            32.4750665
          ],
          [
            90.7450058,
            32.469798
          ],
          [
            90.7430661,
            32.4663728
          ],
          [
            90.739856,
            32.4624116
          ],
          [
            90.738311,
            32.4589354
          ],
          [
            90.7381609,
            32.4533497
          ],
          [
            90.7374011,
            32.4514075
          ],
          [
            90.7367124,
            32.4496468
          ],
          [
            90.7329895,
            32.447492
          ],
          [
            90.7249215,
            32.4469126
          ],
          [
            90.7218315,
            32.4430012
          ],
          [
            90.7216084,
            32.4404442
          ],
          [
            90.7238915,
            32.4373511
          ],
          [
            90.728698,
            32.4351779
          ],
          [
            90.7305348,
            32.4336349
          ],
          [
            90.7314446,
            32.429962
          ],
          [
            90.7304146,
            32.4185149
          ],
          [
            90.732938,
            32.4145081
          ],
          [
            90.733968,
            32.4103055
          ],
          [
            90.7305348,
            32.4062475
          ],
          [
            90.7316162,
            32.4021387
          ],
          [
            90.7355645,
            32.3973557
          ],
          [
            90.7355645,
            32.3943119
          ],
          [
            90.7389977,
            32.3873541
          ],
          [
            90.7391178,
            32.3839258
          ],
          [
            90.7381394,
            32.3821355
          ],
          [
            90.7348263,
            32.3797217
          ],
          [
            90.7364228,
            32.3774964
          ],
          [
            90.7356846,
            32.3710231
          ],
          [
            90.7335045,
            32.3672026
          ],
          [
            90.7293331,
            32.3662384
          ],
          [
            90.7226899,
            32.3637228
          ],
          [
            90.7213166,
            32.3598078
          ],
          [
            90.7218315,
            32.3558926
          ],
          [
            90.7242348,
            32.3516872
          ],
          [
            90.7228615,
            32.3471916
          ],
          [
            90.7197716,
            32.3432759
          ],
          [
            90.7118237,
            32.3411512
          ],
          [
            90.7041504,
            32.3299322
          ],
          [
            90.7017472,
            32.3219541
          ],
          [
            90.7046654,
            32.31354
          ],
          [
            90.6976273,
            32.3057055
          ],
          [
            90.6944859,
            32.2974858
          ],
          [
            90.6902459,
            32.2932269
          ],
          [
            90.6857827,
            32.2943878
          ],
          [
            90.6811478,
            32.2939525
          ],
          [
            90.6741097,
            32.2835041
          ],
          [
            90.6696465,
            32.2826333
          ],
          [
            90.6655266,
            32.2808918
          ],
          [
            90.6603768,
            32.2769732
          ],
          [
            90.6572869,
            32.2762475
          ],
          [
            90.6526005,
            32.2736858
          ],
          [
            90.647794,
            32.2664285
          ],
          [
            90.6450989,
            32.2627488
          ],
          [
            90.6398976,
            32.2635254
          ],
          [
            90.6330826,
            32.2665228
          ],
          [
            90.6296494,
            32.2649261
          ],
          [
            90.6279328,
            32.2614423
          ],
          [
            90.6246197,
            32.2590254
          ],
          [
            90.6174614,
            32.2597004
          ],
          [
            90.6134617,
            32.2575737
          ],
          [
            90.6104233,
            32.2569423
          ],
          [
            90.609565,
            32.2549099
          ],
          [
            90.6064236,
            32.2511862
          ],
          [
            90.6033852,
            32.2470703
          ],
          [
            90.5965187,
            32.2472155
          ],
          [
            90.5934288,
            32.246054
          ],
          [
            90.5922272,
            32.2425695
          ],
          [
            90.5899441,
            32.2404424
          ],
          [
            90.5848458,
            32.2409724
          ],
          [
            90.5811894,
            32.2355057
          ],
          [
            90.577636,
            32.2344385
          ],
          [
            90.5742028,
            32.2348741
          ],
          [
            90.5724861,
            32.2356001
          ],
          [
            90.5704262,
            32.2357453
          ],
          [
            90.566478,
            32.2309535
          ],
          [
            90.5625298,
            32.2312439
          ],
          [
            90.5590451,
            32.2307139
          ],
          [
            90.554805,
            32.2313891
          ],
          [
            90.5499985,
            32.2302275
          ],
          [
            90.5466854,
            32.2288262
          ],
          [
            90.5439389,
            32.2291166
          ],
          [
            90.5391323,
            32.2276645
          ],
          [
            90.5342057,
            32.229937
          ],
          [
            90.5267727,
            32.2296974
          ],
          [
            90.5220177,
            32.2281945
          ],
          [
            90.5172112,
            32.2305179
          ],
          [
            90.5147564,
            32.232892
          ],
          [
            90.5120098,
            32.2320208
          ],
          [
            90.5060017,
            32.2333277
          ],
          [
            90.5012467,
            32.2351645
          ],
          [
            90.4926121,
            32.2369577
          ],
          [
            90.4847157,
            32.2389905
          ],
          [
            90.4797375,
            32.2426203
          ],
          [
            90.4768193,
            32.2423299
          ],
          [
            90.4736092,
            32.239956
          ],
          [
            90.4715493,
            32.2401012
          ],
          [
            90.4673779,
            32.2420396
          ],
          [
            90.4638245,
            32.2415532
          ],
          [
            90.4602196,
            32.2440214
          ],
          [
            90.4555848,
            32.2409724
          ],
          [
            90.4450619,
            32.2362317
          ],
          [
            90.440942,
            32.2349249
          ],
          [
            90.4373886,
            32.2353097
          ],
          [
            90.4320671,
            32.2328412
          ],
          [
            90.4294407,
            32.2330372
          ],
          [
            90.426574,
            32.2340029
          ],
          [
            90.4229176,
            32.2326016
          ],
          [
            90.4199993,
            32.2331825
          ],
          [
            90.4158795,
            32.2355057
          ],
          [
            90.4129612,
            32.2349249
          ],
          [
            90.409528,
            32.2363769
          ],
          [
            90.4039147,
            32.2374877
          ],
          [
            90.4019749,
            32.2392809
          ],
          [
            90.3992798,
            32.2405368
          ],
          [
            90.3934433,
            32.2392301
          ],
          [
            90.388242,
            32.2382645
          ],
          [
            90.3838303,
            32.2386493
          ],
          [
            90.3769123,
            32.2384097
          ],
          [
            90.3673508,
            32.2364713
          ],
          [
            90.3627159,
            32.2370521
          ],
          [
            90.3594544,
            32.2395205
          ],
          [
            90.3549912,
            32.2376329
          ],
          [
            90.3527596,
            32.2366165
          ],
          [
            90.3467514,
            32.2371973
          ],
          [
            90.3441765,
            32.2340029
          ],
          [
            90.3401768,
            32.2341989
          ],
          [
            90.3389752,
            32.2326016
          ],
          [
            90.3397133,
            32.2289206
          ],
          [
            90.33834,
            32.225871
          ],
          [
            90.3355934,
            32.225145
          ],
          [
            90.3314736,
            32.2220953
          ],
          [
            90.3230622,
            32.2151243
          ],
          [
            90.3129341,
            32.2113482
          ],
          [
            90.3096726,
            32.2093148
          ],
          [
            90.306411,
            32.2096053
          ],
          [
            90.2997162,
            32.2098957
          ],
          [
            90.295768,
            32.2122196
          ],
          [
            90.2885067,
            32.211399
          ],
          [
            90.2816918,
            32.2091695
          ],
          [
            90.2689373,
            32.211399
          ],
          [
            90.2617791,
            32.2122196
          ],
          [
            90.2546894,
            32.2102371
          ],
          [
            90.2485096,
            32.2143038
          ],
          [
            90.2399781,
            32.2196265
          ],
          [
            90.2346566,
            32.2186099
          ],
          [
            90.2264168,
            32.221224
          ],
          [
            90.219207,
            32.2189003
          ],
          [
            90.2104523,
            32.2234023
          ],
          [
            90.2066243,
            32.2225818
          ],
          [
            90.2010109,
            32.2171576
          ],
          [
            90.1975262,
            32.2173537
          ],
          [
            90.1925995,
            32.2184647
          ],
          [
            90.1895096,
            32.216141
          ],
          [
            90.1872467,
            32.2140576
          ],
          [
            90.1836731,
            32.2107672
          ],
          [
            90.1788666,
            32.208879
          ],
          [
            90.174824,
            32.2096017
          ],
          [
            90.1690176,
            32.2123285
          ],
          [
            90.1651382,
            32.2100597
          ],
          [
            90.1634431,
            32.2082623
          ],
          [
            90.1583147,
            32.2079355
          ],
          [
            90.1570701,
            32.2082623
          ],
          [
            90.1558426,
            32.2098231
          ],
          [
            90.1531174,
            32.2104767
          ],
          [
            90.1503193,
            32.2122704
          ],
          [
            90.1482638,
            32.2124878
          ],
          [
            90.1460493,
            32.2131056
          ],
          [
            90.144217,
            32.2106951
          ],
          [
            90.1409638,
            32.209293
          ],
          [
            90.1374578,
            32.2093516
          ],
          [
            90.1338913,
            32.2093329
          ],
          [
            90.1313722,
            32.2100918
          ],
          [
            90.1278617,
            32.2087701
          ],
          [
            90.1261067,
            32.2084257
          ],
          [
            90.1218322,
            32.2046123
          ],
          [
            90.117867,
            32.2012721
          ],
          [
            90.1132705,
            32.2015076
          ],
          [
            90.1097214,
            32.2001603
          ],
          [
            90.1065886,
            32.200015
          ],
          [
            90.1029968,
            32.2011268
          ],
          [
            90.1010442,
            32.2013992
          ],
          [
            90.0992632,
            32.2018168
          ],
          [
            90.097847,
            32.2015263
          ],
          [
            90.0969887,
            32.2019802
          ],
          [
            90.0936842,
            32.2023252
          ],
          [
            90.0927186,
            32.201962
          ],
          [
            90.0917315,
            32.2027246
          ],
          [
            90.0893497,
            32.2028517
          ],
          [
            90.0878048,
            32.2030514
          ],
          [
            90.0858736,
            32.2015263
          ],
          [
            90.082891,
            32.2021073
          ],
          [
            90.0817537,
            32.2026338
          ],
          [
            90.0802088,
            32.2035598
          ],
          [
            90.0783634,
            32.2041408
          ],
          [
            90.0762605,
            32.2049034
          ],
          [
            90.0732994,
            32.2038685
          ],
          [
            90.0716471,
            32.2041045
          ],
          [
            90.0707245,
            32.203814
          ],
          [
            90.0701022,
            32.2026157
          ],
          [
            90.0684714,
            32.2026883
          ],
          [
            90.0675702,
            32.2032512
          ],
          [
            90.0666046,
            32.2043043
          ],
          [
            90.0647592,
            32.2045766
          ],
          [
            90.0626908,
            32.2038614
          ]
        ]
      },
      "properties": {
        "name": "扎布藏布",
        "category": "river",
        "light": true,
        "sign": true,
        "note": "河流加灯+标牌",
        "source": "OpenStreetMap",
        "osm_id": 163275050
      }
    },
    {
      "type": "Feature",
      "geometry": {
        "type": "LineString",
        "coordinates": [
          [
            91.5387089,
            33.2024486
          ],
          [
            91.5428248,
            33.2036268
          ],
          [
            91.550515,
            33.2071612
          ],
          [
            91.5545225,
            33.2072518
          ],
          [
            91.5619961,
            33.2085206
          ],
          [
            91.5631875,
            33.2093362
          ],
          [
            91.5662203,
            33.2098799
          ],
          [
            91.5700112,
            33.2100612
          ],
          [
            91.5723941,
            33.2111486
          ],
          [
            91.5741271,
            33.2098799
          ],
          [
            91.5788928,
            33.2109674
          ],
          [
            91.5797593,
            33.2099705
          ],
          [
            91.5834419,
            33.2083393
          ],
          [
            91.5852833,
            33.2087924
          ],
          [
            91.5863664,
            33.2087018
          ],
          [
            91.5886409,
            33.2093362
          ],
          [
            91.5895074,
            33.2081581
          ],
          [
            91.5923236,
            33.2070706
          ],
          [
            91.5938399,
            33.2050768
          ],
          [
            91.5991473,
            33.2027205
          ],
          [
            91.6019634,
            33.2002735
          ],
          [
            91.6052128,
            33.2008173
          ],
          [
            91.6095452,
            33.1977357
          ],
          [
            91.6116032,
            33.1951979
          ],
          [
            91.6149881,
            33.1951551
          ],
          [
            91.6176687,
            33.1923992
          ],
          [
            91.6285295,
            33.1880408
          ],
          [
            91.6376278,
            33.1834631
          ],
          [
            91.6389042,
            33.178488
          ],
          [
            91.6414187,
            33.1686861
          ],
          [
            91.6544703,
            33.1529997
          ],
          [
            91.6636769,
            33.1439312
          ],
          [
            91.672721,
            33.132821
          ],
          [
            91.6777575,
            33.1227979
          ],
          [
            91.6818734,
            33.1102334
          ],
          [
            91.6866392,
            33.1069672
          ],
          [
            91.6930296,
            33.0985291
          ],
          [
            91.6949251,
            33.0935838
          ],
          [
            91.6998533,
            33.0932208
          ],
          [
            91.7044566,
            33.0939014
          ],
          [
            91.7097639,
            33.0928579
          ],
          [
            91.7149087,
            33.0933116
          ],
          [
            91.7180498,
            33.092994
          ],
          [
            91.7262274,
            33.0905439
          ],
          [
            91.7281228,
            33.0877761
          ],
          [
            91.733376,
            33.0863695
          ],
          [
            91.7353798,
            33.0821949
          ],
          [
            91.7374919,
            33.0803345
          ],
          [
            91.7394415,
            33.0797446
          ],
          [
            91.7419764,
            33.0771295
          ],
          [
            91.7425907,
            33.0768548
          ],
          [
            91.7436102,
            33.0766344
          ],
          [
            91.7451498,
            33.0762476
          ],
          [
            91.7456609,
            33.0760058
          ],
          [
            91.7458805,
            33.0754792
          ]
        ]
      },
      "properties": {
        "name": "布曲",
        "category": "river",
        "light": true,
        "sign": true,
        "note": "河流加灯+标牌",
        "source": "OpenStreetMap",
        "osm_id": 67147536
      }
    },
    {
      "type": "Feature",
      "geometry": {
        "type": "LineString",
        "coordinates": [
          [
            91.2135905,
            33.3804315
          ],
          [
            91.2174522,
            33.3796048
          ],
          [
            91.2179049,
            33.3775957
          ],
          [
            91.2249379,
            33.3777502
          ],
          [
            91.2358576,
            33.3791412
          ],
          [
            91.2434458,
            33.3833139
          ],
          [
            91.2478617,
            33.3839274
          ],
          [
            91.2512191,
            33.3901135
          ],
          [
            91.2557276,
            33.3980281
          ],
          [
            91.2622127,
            33.4090182
          ],
          [
            91.272616,
            33.4148301
          ],
          [
            91.2726273,
            33.4165231
          ],
          [
            91.2726459,
            33.4192818
          ],
          [
            91.274344,
            33.423635
          ],
          [
            91.2764641,
            33.4245548
          ],
          [
            91.2776489,
            33.4250688
          ],
          [
            91.2812577,
            33.4295063
          ],
          [
            91.2843962,
            33.4340196
          ],
          [
            91.2892023,
            33.4363389
          ],
          [
            91.2921721,
            33.4360969
          ],
          [
            91.2952252,
            33.4369092
          ],
          [
            91.2975673,
            33.4380307
          ],
          [
            91.2999216,
            33.4374275
          ],
          [
            91.3023801,
            33.4363574
          ],
          [
            91.3046957,
            33.4365853
          ],
          [
            91.3063259,
            33.4375408
          ],
          [
            91.3074127,
            33.437557
          ],
          [
            91.3090198,
            33.4366617
          ],
          [
            91.3128466,
            33.438885
          ],
          [
            91.313396,
            33.4390593
          ],
          [
            91.3147485,
            33.438302
          ],
          [
            91.3157188,
            33.4383668
          ],
          [
            91.3187075,
            33.4399214
          ],
          [
            91.3202212,
            33.4404721
          ],
          [
            91.321929,
            33.440051
          ],
          [
            91.3241026,
            33.4396299
          ],
          [
            91.327949,
            33.4399325
          ],
          [
            91.3289543,
            33.4395328
          ],
          [
            91.3296918,
            33.4387554
          ],
          [
            91.3303074,
            33.4375873
          ],
          [
            91.3316324,
            33.4375894
          ],
          [
            91.3321802,
            33.4379631
          ],
          [
            91.3329521,
            33.4382048
          ],
          [
            91.3334719,
            33.4380294
          ],
          [
            91.3347764,
            33.4374599
          ],
          [
            91.3360184,
            33.4374599
          ],
          [
            91.3368801,
            33.4381056
          ],
          [
            91.3397318,
            33.4378304
          ],
          [
            91.3411325,
            33.4368344
          ],
          [
            91.3420252,
            33.4365429
          ],
          [
            91.3440435,
            33.4371259
          ],
          [
            91.3452079,
            33.4375145
          ],
          [
            91.3476912,
            33.4366531
          ],
          [
            91.3533976,
            33.4352149
          ],
          [
            91.3579389,
            33.4340812
          ],
          [
            91.3594899,
            33.4329849
          ],
          [
            91.3655075,
            33.4320081
          ],
          [
            91.372214,
            33.4318265
          ],
          [
            91.377057,
            33.4317693
          ],
          [
            91.3812366,
            33.4337572
          ],
          [
            91.3830004,
            33.4335407
          ],
          [
            91.3865785,
            33.4369821
          ],
          [
            91.3903692,
            33.4378658
          ],
          [
            91.3919761,
            33.4396644
          ],
          [
            91.3950691,
            33.4401198
          ],
          [
            91.3982833,
            33.4419417
          ],
          [
            91.4007799,
            33.4425047
          ],
          [
            91.4068345,
            33.4459901
          ],
          [
            91.4090784,
            33.4460407
          ],
          [
            91.4123533,
            33.4489757
          ],
          [
            91.4153856,
            33.4496841
          ],
          [
            91.4183017,
            33.4525519
          ],
          [
            91.419028,
            33.4530797
          ],
          [
            91.4213025,
            33.4531961
          ],
          [
            91.4242784,
            33.4546314
          ]
        ]
      },
      "properties": {
        "name": "帕曲",
        "category": "river",
        "light": true,
        "sign": true,
        "note": "河流加灯+标牌",
        "source": "OpenStreetMap",
        "osm_id": 39351937
      }
    },
    {
      "type": "Feature",
      "geometry": {
        "type": "LineString",
        "coordinates": [
          [
            91.2135905,
            33.3804315
          ],
          [
            91.2174522,
            33.3796048
          ],
          [
            91.2179049,
            33.3775957
          ],
          [
            91.2249379,
            33.3777502
          ],
          [
            91.2358576,
            33.3791412
          ],
          [
            91.2434458,
            33.3833139
          ],
          [
            91.2478617,
            33.3839274
          ],
          [
            91.2512191,
            33.3901135
          ],
          [
            91.2557276,
            33.3980281
          ],
          [
            91.2622127,
            33.4090182
          ],
          [
            91.272616,
            33.4148301
          ],
          [
            91.2726273,
            33.4165231
          ],
          [
            91.2726459,
            33.4192818
          ],
          [
            91.274344,
            33.423635
          ],
          [
            91.2764641,
            33.4245548
          ],
          [
            91.2776489,
            33.4250688
          ],
          [
            91.2812577,
            33.4295063
          ],
          [
            91.2843962,
            33.4340196
          ],
          [
            91.2892023,
            33.4363389
          ],
          [
            91.2921721,
            33.4360969
          ],
          [
            91.2952252,
            33.4369092
          ],
          [
            91.2975673,
            33.4380307
          ],
          [
            91.2999216,
            33.4374275
          ],
          [
            91.3023801,
            33.4363574
          ],
          [
            91.3046957,
            33.4365853
          ],
          [
            91.3063259,
            33.4375408
          ],
          [
            91.3074127,
            33.437557
          ],
          [
            91.3090198,
            33.4366617
          ],
          [
            91.3128466,
            33.438885
          ],
          [
            91.313396,
            33.4390593
          ],
          [
            91.3147485,
            33.438302
          ],
          [
            91.3157188,
            33.4383668
          ],
          [
            91.3187075,
            33.4399214
          ],
          [
            91.3202212,
            33.4404721
          ],
          [
            91.321929,
            33.440051
          ],
          [
            91.3241026,
            33.4396299
          ],
          [
            91.327949,
            33.4399325
          ],
          [
            91.3289543,
            33.4395328
          ],
          [
            91.3296918,
            33.4387554
          ],
          [
            91.3303074,
            33.4375873
          ],
          [
            91.3316324,
            33.4375894
          ],
          [
            91.3321802,
            33.4379631
          ],
          [
            91.3329521,
            33.4382048
          ],
          [
            91.3334719,
            33.4380294
          ],
          [
            91.3347764,
            33.4374599
          ],
          [
            91.3360184,
            33.4374599
          ],
          [
            91.3368801,
            33.4381056
          ],
          [
            91.3397318,
            33.4378304
          ],
          [
            91.3411325,
            33.4368344
          ],
          [
            91.3420252,
            33.4365429
          ],
          [
            91.3440435,
            33.4371259
          ],
          [
            91.3452079,
            33.4375145
          ],
          [
            91.3476912,
            33.4366531
          ],
          [
            91.3533976,
            33.4352149
          ],
          [
            91.3579389,
            33.4340812
          ],
          [
            91.3594899,
            33.4329849
          ],
          [
            91.3655075,
            33.4320081
          ],
          [
            91.372214,
            33.4318265
          ],
          [
            91.377057,
            33.4317693
          ],
          [
            91.3812366,
            33.4337572
          ],
          [
            91.3830004,
            33.4335407
          ],
          [
            91.3865785,
            33.4369821
          ],
          [
            91.3903692,
            33.4378658
          ],
          [
            91.3919761,
            33.4396644
          ],
          [
            91.3950691,
            33.4401198
          ],
          [
            91.3982833,
            33.4419417
          ],
          [
            91.4007799,
            33.4425047
          ],
          [
            91.4068345,
            33.4459901
          ],
          [
            91.4090784,
            33.4460407
          ],
          [
            91.4123533,
            33.4489757
          ],
          [
            91.4153856,
            33.4496841
          ],
          [
            91.4183017,
            33.4525519
          ],
          [
            91.419028,
            33.4530797
          ],
          [
            91.4213025,
            33.4531961
          ],
          [
            91.4242784,
            33.4546314
          ]
        ]
      },
      "properties": {
        "name": "拉日曲",
        "category": "river",
        "light": true,
        "sign": true,
        "note": "河流加灯+标牌",
        "source": "OpenStreetMap",
        "osm_id": 39351937
      }
    }
  ],
  "properties": {
    "category": "river"
  }
}