{
  "type": "FeatureCollection",
  "features": [
    {
      "type": "Feature",
      "geometry": {
        "type": "LineString",
        "coordinates": [
          [
            91.7215729,
            31.9177885
          ],
          [
            91.7177226,
            31.91369
          ],
          [
            91.7148565,
            31.910699
          ],
          [
            91.7088733,
            31.9043684
          ],
          [
            91.7075338,
            31.9029472
          ],
          [
            91.7063997,
            31.901749
          ],
          [
            91.7056416,
            31.9009492
          ],
          [
            91.7051223,
            31.9003608
          ],
          [
            91.7047793,
            31.9000879
          ],
          [
            91.7045036,
            31.899903
          ],
          [
            91.7042891,
            31.8997992
          ],
          [
            91.7037878,
            31.8995991
          ],
          [
            91.703109,
            31.8993554
          ],
          [
            91.7019282,
            31.8989491
          ],
          [
            91.7013024,
            31.8987321
          ],
          [
            91.6996281,
            31.898133
          ],
          [
            91.6991025,
            31.8979465
          ],
          [
            91.6988365,
            31.8978095
          ],
          [
            91.6985558,
            31.8976581
          ],
          [
            91.6983223,
            31.8975443
          ],
          [
            91.6981098,
            31.8973713
          ],
          [
            91.6979751,
            31.8972378
          ],
          [
            91.6977907,
            31.8970468
          ],
          [
            91.6976087,
            31.8968535
          ],
          [
            91.6974396,
            31.8966234
          ],
          [
            91.6973117,
            31.896403
          ],
          [
            91.6972162,
            31.8962318
          ],
          [
            91.6971401,
            31.8960669
          ],
          [
            91.6970597,
            31.8958839
          ],
          [
            91.6970002,
            31.8957141
          ],
          [
            91.6969396,
            31.8955383
          ],
          [
            91.6969017,
            31.8953621
          ],
          [
            91.6968804,
            31.895189
          ],
          [
            91.6968672,
            31.8949963
          ],
          [
            91.6968612,
            31.8948229
          ],
          [
            91.6968697,
            31.8946435
          ],
          [
            91.6968858,
            31.8944613
          ],
          [
            91.6969116,
            31.894281
          ],
          [
            91.6969539,
            31.8941203
          ],
          [
            91.6969984,
            31.8939948
          ],
          [
            91.6970489,
            31.8938393
          ],
          [
            91.6980529,
            31.8910828
          ],
          [
            91.6981373,
            31.8908141
          ],
          [
            91.6981688,
            31.8905123
          ],
          [
            91.6980904,
            31.8894295
          ],
          [
            91.6981267,
            31.8890385
          ],
          [
            91.6984673,
            31.8880403
          ],
          [
            91.698537,
            31.8876076
          ],
          [
            91.6985477,
            31.8871384
          ],
          [
            91.6986036,
            31.8866783
          ],
          [
            91.6986926,
            31.8864005
          ],
          [
            91.6988857,
            31.8860361
          ],
          [
            91.6992826,
            31.8854166
          ],
          [
            91.699483,
            31.8850274
          ],
          [
            91.7001046,
            31.8816281
          ],
          [
            91.7002751,
            31.8805518
          ],
          [
            91.700367,
            31.8794349
          ],
          [
            91.7004437,
            31.8738728
          ],
          [
            91.7004065,
            31.8733088
          ],
          [
            91.7002831,
            31.8728441
          ],
          [
            91.7000685,
            31.8723111
          ],
          [
            91.6996659,
            31.8715749
          ],
          [
            91.696465,
            31.8665048
          ],
          [
            91.6959462,
            31.8655711
          ],
          [
            91.6954132,
            31.8635541
          ],
          [
            91.6950291,
            31.861198
          ],
          [
            91.6945789,
            31.8588811
          ],
          [
            91.6945207,
            31.8585069
          ],
          [
            91.6945129,
            31.8581781
          ],
          [
            91.6945241,
            31.8579035
          ],
          [
            91.6945605,
            31.8576432
          ],
          [
            91.694612,
            31.8573855
          ],
          [
            91.6946757,
            31.8571453
          ],
          [
            91.6947926,
            31.8568456
          ],
          [
            91.6949752,
            31.8564472
          ],
          [
            91.6954279,
            31.855427
          ],
          [
            91.6959302,
            31.8543226
          ],
          [
            91.6965039,
            31.8530385
          ],
          [
            91.6967762,
            31.8524472
          ],
          [
            91.6983526,
            31.8489388
          ],
          [
            91.698473,
            31.8486709
          ],
          [
            91.6988066,
            31.8481473
          ],
          [
            91.6992706,
            31.8476006
          ],
          [
            91.7118053,
            31.8349408
          ],
          [
            91.7153962,
            31.830854
          ],
          [
            91.7163241,
            31.8300732
          ],
          [
            91.7175654,
            31.8291959
          ],
          [
            91.7195759,
            31.8281144
          ],
          [
            91.7254639,
            31.8253797
          ],
          [
            91.7296462,
            31.823354
          ],
          [
            91.7312998,
            31.8223158
          ],
          [
            91.7318481,
            31.8218354
          ],
          [
            91.7322723,
            31.8214359
          ],
          [
            91.7428055,
            31.8088456
          ],
          [
            91.7432266,
            31.808376
          ],
          [
            91.7436889,
            31.8079648
          ],
          [
            91.748391,
            31.8046868
          ],
          [
            91.7503307,
            31.8033419
          ],
          [
            91.7517363,
            31.8023723
          ],
          [
            91.7520351,
            31.8021662
          ],
          [
            91.7526221,
            31.8017863
          ],
          [
            91.7542554,
            31.8008234
          ],
          [
            91.755264,
            31.8002371
          ],
          [
            91.755603,
            31.8000475
          ],
          [
            91.755854,
            31.7998706
          ],
          [
            91.75609,
            31.79965
          ],
          [
            91.7562792,
            31.799421
          ],
          [
            91.7564075,
            31.7992233
          ],
          [
            91.7564955,
            31.7990355
          ],
          [
            91.7565856,
            31.7987912
          ],
          [
            91.7566435,
            31.798525
          ],
          [
            91.7566671,
            31.7983043
          ],
          [
            91.7566584,
            31.798071
          ],
          [
            91.7553657,
            31.7913931
          ],
          [
            91.7552655,
            31.7908563
          ],
          [
            91.7552415,
            31.79044
          ],
          [
            91.7552542,
            31.7900961
          ],
          [
            91.7552808,
            31.7897553
          ],
          [
            91.7558443,
            31.7852671
          ],
          [
            91.7559578,
            31.7844574
          ],
          [
            91.7561983,
            31.7837504
          ],
          [
            91.7564031,
            31.7833539
          ],
          [
            91.7566484,
            31.7829739
          ],
          [
            91.7639782,
            31.7754492
          ],
          [
            91.7643451,
            31.7749403
          ],
          [
            91.7646688,
            31.774236
          ],
          [
            91.766337,
            31.7701023
          ],
          [
            91.7671309,
            31.7671292
          ],
          [
            91.7673438,
            31.7664621
          ],
          [
            91.7676227,
            31.766038
          ],
          [
            91.7680631,
            31.7655727
          ],
          [
            91.7700026,
            31.7639802
          ],
          [
            91.7708038,
            31.7631919
          ],
          [
            91.7715292,
            31.7623369
          ],
          [
            91.7729292,
            31.7605369
          ],
          [
            91.7731629,
            31.7602318
          ],
          [
            91.7734815,
            31.7598938
          ],
          [
            91.7739851,
            31.759494
          ],
          [
            91.774416,
            31.7591947
          ],
          [
            91.7746991,
            31.7589508
          ],
          [
            91.7748953,
            31.7587639
          ],
          [
            91.7751381,
            31.7584517
          ],
          [
            91.775308,
            31.7581344
          ],
          [
            91.7757132,
            31.7572539
          ],
          [
            91.775982,
            31.7568257
          ],
          [
            91.7762733,
            31.7564697
          ],
          [
            91.7769168,
            31.755896
          ],
          [
            91.7781665,
            31.7547876
          ],
          [
            91.7788886,
            31.7542045
          ],
          [
            91.7795435,
            31.7537784
          ],
          [
            91.7801855,
            31.753409
          ],
          [
            91.7806818,
            31.7531688
          ],
          [
            91.7812982,
            31.7529046
          ],
          [
            91.7820184,
            31.7526452
          ],
          [
            91.7832756,
            31.7522001
          ],
          [
            91.7841302,
            31.7519004
          ],
          [
            91.784462,
            31.7517549
          ],
          [
            91.7847538,
            31.7515981
          ],
          [
            91.7850413,
            31.7513773
          ],
          [
            91.7862071,
            31.7504279
          ],
          [
            91.7870129,
            31.7497736
          ],
          [
            91.7874527,
            31.7494671
          ],
          [
            91.7881794,
            31.749019
          ],
          [
            91.7891154,
            31.7484765
          ],
          [
            91.7895273,
            31.7482028
          ],
          [
            91.7902951,
            31.7476492
          ],
          [
            91.7912243,
            31.7469842
          ],
          [
            91.7915547,
            31.7467324
          ],
          [
            91.7917736,
            31.7465354
          ],
          [
            91.7919449,
            31.7463514
          ],
          [
            91.7922642,
            31.7459223
          ],
          [
            91.7931761,
            31.7443713
          ],
          [
            91.7944186,
            31.7426314
          ],
          [
            91.7948123,
            31.7418759
          ],
          [
            91.7950751,
            31.7410821
          ],
          [
            91.7952104,
            31.7404171
          ],
          [
            91.79522,
            31.7399462
          ],
          [
            91.7951288,
            31.7395082
          ],
          [
            91.7949216,
            31.7386447
          ],
          [
            91.7948779,
            31.7383218
          ],
          [
            91.794896,
            31.7380067
          ],
          [
            91.7949658,
            31.7377228
          ],
          [
            91.7950356,
            31.7374932
          ],
          [
            91.7951751,
            31.7372171
          ],
          [
            91.7954088,
            31.7368997
          ],
          [
            91.7957126,
            31.7364703
          ],
          [
            91.7972962,
            31.7345868
          ],
          [
            91.7990292,
            31.7328208
          ],
          [
            91.8006962,
            31.7311538
          ],
          [
            91.8028492,
            31.7294891
          ],
          [
            91.8101936,
            31.7236419
          ],
          [
            91.8109941,
            31.7229643
          ],
          [
            91.8123673,
            31.7216137
          ],
          [
            91.8131915,
            31.7210693
          ],
          [
            91.819443,
            31.7176301
          ],
          [
            91.820033,
            31.7173447
          ],
          [
            91.8205803,
            31.7171829
          ],
          [
            91.8212186,
            31.7170867
          ],
          [
            91.8255846,
            31.7166075
          ],
          [
            91.8260037,
            31.7165486
          ],
          [
            91.8264704,
            31.7164026
          ],
          [
            91.8268674,
            31.7162018
          ],
          [
            91.8272276,
            31.7159338
          ],
          [
            91.8315727,
            31.7122518
          ],
          [
            91.832414,
            31.7115896
          ],
          [
            91.8404097,
            31.706838
          ],
          [
            91.8413057,
            31.7062076
          ],
          [
            91.84249,
            31.7052855
          ],
          [
            91.8469859,
            31.7016435
          ],
          [
            91.8475633,
            31.7011142
          ],
          [
            91.8479196,
            31.7005878
          ],
          [
            91.8482537,
            31.6999626
          ],
          [
            91.8498429,
            31.6956722
          ],
          [
            91.8507391,
            31.6931732
          ],
          [
            91.8518845,
            31.6885827
          ],
          [
            91.8520822,
            31.6878731
          ],
          [
            91.8532007,
            31.6824071
          ],
          [
            91.8532445,
            31.6821094
          ],
          [
            91.8532508,
            31.6818232
          ],
          [
            91.8532096,
            31.6815593
          ]
        ]
      },
      "properties": {
        "name": "国道109",
        "category": "road",
        "road_type": "公路",
        "light_color": "黄色或白色",
        "routes": [],
        "note": "",
        "source": "OpenStreetMap",
        "osm_id": 35476711
      }
    },
    {
      "type": "Feature",
      "geometry": {
        "type": "LineString",
        "coordinates": [
          [
            91.8697524,
            32.3026037
          ],
          [
            91.870262,
            32.3024628
          ],
          [
            91.8707935,
            32.3024346
          ],
          [
            91.8716164,
            32.3025586
          ],
          [
            91.8721585,
            32.3025842
          ],
          [
            91.8739636,
            32.3024166
          ],
          [
            91.8743641,
            32.3023844
          ],
          [
            91.8757862,
            32.3022662
          ],
          [
            91.8759385,
            32.3022598
          ],
          [
            91.8763955,
            32.3022408
          ],
          [
            91.8767409,
            32.3023043
          ],
          [
            91.8774767,
            32.3025708
          ],
          [
            91.8801113,
            32.3035501
          ],
          [
            91.8828832,
            32.3045746
          ],
          [
            91.8832908,
            32.3046979
          ],
          [
            91.8838228,
            32.3048194
          ],
          [
            91.885138,
            32.3050914
          ],
          [
            91.8865604,
            32.3053725
          ],
          [
            91.8882488,
            32.3056934
          ],
          [
            91.8899523,
            32.3059672
          ],
          [
            91.8920805,
            32.3062918
          ],
          [
            91.892589,
            32.3063281
          ],
          [
            91.8947301,
            32.3064641
          ],
          [
            91.8960259,
            32.3065294
          ],
          [
            91.8973839,
            32.3065638
          ],
          [
            91.898373,
            32.3066164
          ],
          [
            91.899111,
            32.3066853
          ],
          [
            91.8997181,
            32.3067868
          ],
          [
            91.9003875,
            32.3068884
          ],
          [
            91.9014366,
            32.3070461
          ],
          [
            91.9034318,
            32.3073671
          ],
          [
            91.9050473,
            32.3076318
          ],
          [
            91.9059441,
            32.3077769
          ],
          [
            91.9072528,
            32.3080507
          ],
          [
            91.9090851,
            32.308473
          ],
          [
            91.9094764,
            32.3086144
          ],
          [
            91.9099549,
            32.3088501
          ],
          [
            91.9115789,
            32.3096371
          ],
          [
            91.9131923,
            32.3104349
          ],
          [
            91.9134519,
            32.3105564
          ],
          [
            91.9136986,
            32.3106361
          ],
          [
            91.9140462,
            32.3107141
          ],
          [
            91.9145825,
            32.3108646
          ],
          [
            91.9155479,
            32.3111457
          ],
          [
            91.9160693,
            32.3112726
          ],
          [
            91.9170733,
            32.3115482
          ],
          [
            91.9173415,
            32.3116407
          ],
          [
            91.9180731,
            32.3119761
          ],
          [
            91.9185987,
            32.3121882
          ],
          [
            91.9189913,
            32.3123242
          ],
          [
            91.9193131,
            32.3123315
          ],
          [
            91.9197636,
            32.3123279
          ],
          [
            91.9210874,
            32.3122626
          ],
          [
            91.9212182,
            32.3122299
          ],
          [
            91.9213384,
            32.3121737
          ],
          [
            91.9222309,
            32.3114358
          ],
          [
            91.9225291,
            32.3112236
          ],
          [
            91.9226964,
            32.3111348
          ],
          [
            91.9230847,
            32.3110369
          ],
          [
            91.9239193,
            32.3107939
          ],
          [
            91.9257,
            32.3102789
          ],
          [
            91.9258995,
            32.3102536
          ],
          [
            91.9261205,
            32.3102572
          ],
          [
            91.9272726,
            32.3104095
          ],
          [
            91.9275987,
            32.3104548
          ],
          [
            91.9277982,
            32.310473
          ],
          [
            91.9281157,
            32.3104294
          ],
          [
            91.9288494,
            32.3103152
          ],
          [
            91.9303083,
            32.3101284
          ],
          [
            91.9315162,
            32.3099616
          ],
          [
            91.9333912,
            32.309715
          ],
          [
            91.9344382,
            32.30957
          ],
          [
            91.9356267,
            32.3095591
          ],
          [
            91.9372916,
            32.3095246
          ],
          [
            91.9391452,
            32.3094557
          ],
          [
            91.9407392,
            32.3094068
          ],
          [
            91.9415287,
            32.3093306
          ],
          [
            91.9424856,
            32.3092255
          ],
          [
            91.9443671,
            32.3090042
          ],
          [
            91.9458024,
            32.3088429
          ],
          [
            91.9466005,
            32.3087105
          ],
          [
            91.9469244,
            32.308696
          ],
          [
            91.947184,
            32.308725
          ],
          [
            91.947641,
            32.3088574
          ],
          [
            91.9485013,
            32.3091148
          ],
          [
            91.9492758,
            32.3092944
          ],
          [
            91.9494839,
            32.3093687
          ],
          [
            91.9496577,
            32.3095391
          ],
          [
            91.9503914,
            32.3102155
          ],
          [
            91.9515521,
            32.3112526
          ],
          [
            91.9522815,
            32.3118843
          ],
          [
            91.9539563,
            32.3139459
          ],
          [
            91.9542263,
            32.3143291
          ],
          [
            91.9544569,
            32.3144701
          ],
          [
            91.9548028,
            32.3145393
          ],
          [
            91.9551912,
            32.3145624
          ],
          [
            91.9556222,
            32.3146211
          ],
          [
            91.9560675,
            32.3146318
          ],
          [
            91.9563705,
            32.3146295
          ],
          [
            91.9566337,
            32.3145916
          ],
          [
            91.957036,
            32.3145591
          ],
          [
            91.9573684,
            32.314566
          ],
          [
            91.9576851,
            32.3146342
          ],
          [
            91.9580159,
            32.3147496
          ],
          [
            91.9597695,
            32.3154547
          ],
          [
            91.9612077,
            32.3160317
          ],
          [
            91.9615384,
            32.3160906
          ],
          [
            91.9623333,
            32.3161342
          ],
          [
            91.9640172,
            32.3162624
          ],
          [
            91.9662139,
            32.3164265
          ],
          [
            91.9673425,
            32.3165419
          ],
          [
            91.9679069,
            32.3166522
          ],
          [
            91.968626,
            32.316806
          ],
          [
            91.9691842,
            32.3167573
          ],
          [
            91.9704585,
            32.3166394
          ],
          [
            91.9723305,
            32.3164419
          ],
          [
            91.972731,
            32.3163394
          ],
          [
            91.9737141,
            32.3159932
          ],
          [
            91.974948,
            32.3154265
          ],
          [
            91.9753629,
            32.3151712
          ],
          [
            91.9755524,
            32.3149548
          ],
          [
            91.976121,
            32.3140598
          ],
          [
            91.9763696,
            32.3138579
          ],
          [
            91.9766915,
            32.3137173
          ],
          [
            91.9770455,
            32.3135587
          ],
          [
            91.9772923,
            32.3133184
          ],
          [
            91.9774671,
            32.3130527
          ],
          [
            91.9777943,
            32.3124635
          ],
          [
            91.9783178,
            32.3115496
          ],
          [
            91.9787106,
            32.3109001
          ],
          [
            91.9789078,
            32.3105257
          ],
          [
            91.9790868,
            32.3103616
          ],
          [
            91.9793265,
            32.3102539
          ],
          [
            91.9794933,
            32.3102077
          ],
          [
            91.9795753,
            32.3101821
          ],
          [
            91.9814048,
            32.3095692
          ],
          [
            91.9826814,
            32.3091452
          ],
          [
            91.9829861,
            32.3091126
          ],
          [
            91.9841918,
            32.3091416
          ],
          [
            91.9848311,
            32.3091452
          ],
          [
            91.9861827,
            32.3093193
          ],
          [
            91.9869079,
            32.3094027
          ],
          [
            91.9886842,
            32.3098016
          ],
          [
            91.9913102,
            32.3104471
          ],
          [
            91.9919066,
            32.3105777
          ],
          [
            91.9925245,
            32.3106321
          ],
          [
            91.9944725,
            32.3107408
          ],
          [
            91.9958713,
            32.3108025
          ],
          [
            91.9972229,
            32.310788
          ],
          [
            91.9989736,
            32.3107735
          ],
          [
            92.0004625,
            32.3108533
          ],
          [
            92.002063,
            32.310904
          ],
          [
            92.0029941,
            32.3109185
          ],
          [
            92.003775,
            32.3109838
          ],
          [
            92.0047962,
            32.3110854
          ],
          [
            92.0061521,
            32.3113066
          ],
          [
            92.0077054,
            32.3115423
          ],
          [
            92.0086966,
            32.3116765
          ],
          [
            92.010842,
            32.3120101
          ],
          [
            92.0133435,
            32.3124054
          ],
          [
            92.0165916,
            32.3129312
          ],
          [
            92.0194064,
            32.3132793
          ],
          [
            92.0206336,
            32.3131741
          ],
          [
            92.0215947,
            32.3131343
          ],
          [
            92.0237744,
            32.3130545
          ],
          [
            92.0270698,
            32.3130001
          ],
          [
            92.0282784,
            32.3129701
          ],
          [
            92.0289823,
            32.3130009
          ],
          [
            92.030645,
            32.3131445
          ],
          [
            92.0318677,
            32.3132676
          ],
          [
            92.0334151,
            32.3134906
          ],
          [
            92.0355662,
            32.3139317
          ],
          [
            92.0363278,
            32.3140958
          ],
          [
            92.0374625,
            32.3141753
          ],
          [
            92.0383363,
            32.3141137
          ],
          [
            92.0393861,
            32.314024
          ],
          [
            92.0418285,
            32.3137573
          ],
          [
            92.0444803,
            32.3134855
          ],
          [
            92.0457145,
            32.3132914
          ],
          [
            92.0471799,
            32.3130453
          ],
          [
            92.0481144,
            32.3128966
          ],
          [
            92.0489063,
            32.312853
          ],
          [
            92.0500046,
            32.3128735
          ],
          [
            92.0519616,
            32.3129196
          ],
          [
            92.0529363,
            32.3129474
          ],
          [
            92.0533719,
            32.3129492
          ],
          [
            92.0538546,
            32.3130199
          ],
          [
            92.0541742,
            32.3131468
          ],
          [
            92.054421,
            32.3133209
          ],
          [
            92.0547385,
            32.3136998
          ],
          [
            92.054983,
            32.3138938
          ],
          [
            92.0553244,
            32.3141137
          ],
          [
            92.0555687,
            32.3141559
          ],
          [
            92.0557359,
            32.3141683
          ],
          [
            92.0560951,
            32.3141084
          ],
          [
            92.0566543,
            32.3138684
          ],
          [
            92.0569954,
            32.3137723
          ],
          [
            92.0573366,
            32.3137415
          ],
          [
            92.058111,
            32.3137252
          ],
          [
            92.0588684,
            32.3136962
          ],
          [
            92.0602972,
            32.3136472
          ],
          [
            92.0608142,
            32.3136255
          ],
          [
            92.0610932,
            32.3135584
          ],
          [
            92.0619535,
            32.3132139
          ],
          [
            92.0640667,
            32.3123581
          ],
          [
            92.0649291,
            32.3120027
          ],
          [
            92.0668214,
            32.3111976
          ],
          [
            92.0684969,
            32.310505
          ],
          [
            92.0698657,
            32.3099447
          ],
          [
            92.0702025,
            32.3097706
          ],
          [
            92.070402,
            32.3096346
          ],
          [
            92.0706573,
            32.3093608
          ],
          [
            92.0709148,
            32.3090472
          ],
          [
            92.0718309,
            32.3079338
          ],
          [
            92.0728478,
            32.3066845
          ],
          [
            92.073869,
            32.3055947
          ],
          [
            92.0749052,
            32.3044559
          ],
          [
            92.0753279,
            32.3040533
          ],
          [
            92.07651,
            32.302871
          ],
          [
            92.0780053,
            32.3015527
          ],
          [
            92.0787133,
            32.3009652
          ],
          [
            92.0792411,
            32.3005898
          ],
          [
            92.080627,
            32.2997375
          ],
          [
            92.0809681,
            32.2996105
          ],
          [
            92.0814702,
            32.2994818
          ],
          [
            92.0826115,
            32.2993458
          ],
          [
            92.0830835,
            32.299275
          ],
          [
            92.0833882,
            32.2992352
          ],
          [
            92.0838258,
            32.2990864
          ],
          [
            92.0843643,
            32.2988453
          ],
          [
            92.0852053,
            32.29841
          ],
          [
            92.0862179,
            32.2978497
          ],
          [
            92.0874365,
            32.2970463
          ],
          [
            92.08787,
            32.2966252
          ],
          [
            92.0880115,
            32.2964877
          ],
          [
            92.0883269,
            32.2961522
          ],
          [
            92.0889432,
            32.295657
          ],
          [
            92.0895025,
            32.2952816
          ]
        ]
      },
      "properties": {
        "name": "县城通往乡镇主干道",
        "category": "road",
        "road_type": "公路",
        "light_color": "黄色或白色",
        "routes": [
          "X622",
          "X619",
          "C037",
          "S301"
        ],
        "note": "",
        "source": "OpenStreetMap",
        "osm_id": 264950899
      }
    },
    {
      "type": "Feature",
      "geometry": {
        "type": "LineString",
        "coordinates": [
          [
            91.9184292,
            32.8826237
          ],
          [
            91.91825,
            32.881983
          ],
          [
            91.917933,
            32.881067
          ],
          [
            91.917467,
            32.880017
          ],
          [
            91.91675,
            32.878983
          ],
          [
            91.916033,
            32.878067
          ],
          [
            91.9158535,
            32.8777232
          ],
          [
            91.915773,
            32.8772051
          ],
          [
            91.9159341,
            32.8766567
          ],
          [
            91.91617,
            32.876304
          ],
          [
            91.9166446,
            32.8758272
          ],
          [
            91.9178567,
            32.8746733
          ],
          [
            91.9182171,
            32.8743081
          ],
          [
            91.9183425,
            32.8740063
          ],
          [
            91.9183963,
            32.8737664
          ],
          [
            91.9184429,
            32.8733541
          ],
          [
            91.9184848,
            32.87245
          ],
          [
            91.9184981,
            32.8721636
          ],
          [
            91.918417,
            32.871817
          ],
          [
            91.9182728,
            32.8716139
          ],
          [
            91.9179913,
            32.8714124
          ],
          [
            91.9176505,
            32.8712174
          ],
          [
            91.9174592,
            32.8710638
          ],
          [
            91.9173288,
            32.8708513
          ],
          [
            91.9172093,
            32.8705937
          ],
          [
            91.91695,
            32.8694
          ],
          [
            91.9167709,
            32.8687923
          ],
          [
            91.9161328,
            32.8675567
          ],
          [
            91.915867,
            32.866217
          ],
          [
            91.9158461,
            32.8656908
          ],
          [
            91.9160071,
            32.8653957
          ],
          [
            91.9165358,
            32.8648528
          ],
          [
            91.9169512,
            32.8644517
          ],
          [
            91.9172061,
            32.8639744
          ],
          [
            91.9175386,
            32.8627417
          ],
          [
            91.9176003,
            32.8621965
          ],
          [
            91.9174401,
            32.8616316
          ],
          [
            91.9168337,
            32.860484
          ],
          [
            91.9166944,
            32.8601281
          ],
          [
            91.9166291,
            32.8598215
          ],
          [
            91.9165882,
            32.8594664
          ],
          [
            91.9166337,
            32.8587925
          ],
          [
            91.9167263,
            32.8573397
          ],
          [
            91.9166912,
            32.8568472
          ],
          [
            91.916575,
            32.8563529
          ],
          [
            91.9160318,
            32.8545083
          ],
          [
            91.9158632,
            32.8539089
          ],
          [
            91.9156791,
            32.8533915
          ],
          [
            91.9154227,
            32.8529398
          ],
          [
            91.9146678,
            32.852076
          ],
          [
            91.913967,
            32.8512297
          ],
          [
            91.9131662,
            32.8502546
          ],
          [
            91.9124784,
            32.8491459
          ],
          [
            91.9121079,
            32.8477773
          ],
          [
            91.9121369,
            32.8464834
          ],
          [
            91.9121724,
            32.8458342
          ],
          [
            91.9124249,
            32.8454523
          ],
          [
            91.9135359,
            32.8444787
          ],
          [
            91.9140746,
            32.8435297
          ],
          [
            91.914333,
            32.841683
          ],
          [
            91.914733,
            32.838417
          ],
          [
            91.91495,
            32.837067
          ],
          [
            91.915383,
            32.8334
          ],
          [
            91.915598,
            32.8318362
          ],
          [
            91.91555,
            32.831367
          ],
          [
            91.914683,
            32.829433
          ],
          [
            91.913633,
            32.827633
          ],
          [
            91.9122649,
            32.8266382
          ],
          [
            91.9115178,
            32.8261312
          ],
          [
            91.909083,
            32.824183
          ],
          [
            91.9061088,
            32.8226652
          ],
          [
            91.905567,
            32.8223271
          ],
          [
            91.9050597,
            32.8219316
          ],
          [
            91.9047302,
            32.8216193
          ],
          [
            91.9045585,
            32.8212497
          ],
          [
            91.9045317,
            32.8209071
          ],
          [
            91.9045189,
            32.8203338
          ],
          [
            91.9044459,
            32.820055
          ],
          [
            91.9037,
            32.818517
          ],
          [
            91.9034937,
            32.8171991
          ],
          [
            91.9034293,
            32.8169308
          ],
          [
            91.9033126,
            32.8166762
          ],
          [
            91.9027232,
            32.8156753
          ],
          [
            91.9022232,
            32.8149432
          ],
          [
            91.901358,
            32.8141266
          ],
          [
            91.9011188,
            32.8138437
          ],
          [
            91.9009353,
            32.8134978
          ],
          [
            91.9005504,
            32.8127503
          ],
          [
            91.9002931,
            32.8120708
          ],
          [
            91.9001518,
            32.8116125
          ],
          [
            91.899667,
            32.80965
          ],
          [
            91.8995776,
            32.8090328
          ],
          [
            91.8994775,
            32.8077065
          ],
          [
            91.8994314,
            32.8069567
          ],
          [
            91.8993979,
            32.8065421
          ],
          [
            91.8993917,
            32.8061868
          ],
          [
            91.8994354,
            32.8058144
          ],
          [
            91.8999271,
            32.8037367
          ],
          [
            91.9000235,
            32.8033185
          ],
          [
            91.9001226,
            32.8031005
          ],
          [
            91.9002816,
            32.8028949
          ],
          [
            91.9004817,
            32.8027123
          ],
          [
            91.9007754,
            32.8025384
          ],
          [
            91.9011056,
            32.8024399
          ],
          [
            91.9013824,
            32.8024156
          ],
          [
            91.9017397,
            32.802448
          ],
          [
            91.902716,
            32.8026967
          ],
          [
            91.9030652,
            32.8027779
          ],
          [
            91.9033544,
            32.8027959
          ],
          [
            91.9035266,
            32.8027737
          ],
          [
            91.903662,
            32.8027562
          ],
          [
            91.9039211,
            32.8026602
          ],
          [
            91.9041507,
            32.8025272
          ],
          [
            91.9043031,
            32.8023813
          ],
          [
            91.9044863,
            32.8020925
          ],
          [
            91.90455,
            32.801833
          ],
          [
            91.9047517,
            32.7985101
          ],
          [
            91.9048562,
            32.7967033
          ],
          [
            91.904883,
            32.794783
          ],
          [
            91.9046759,
            32.7864773
          ],
          [
            91.9046464,
            32.786179
          ],
          [
            91.9045686,
            32.7857505
          ],
          [
            91.9041901,
            32.7842658
          ],
          [
            91.900733,
            32.771433
          ],
          [
            91.8998958,
            32.7683502
          ],
          [
            91.8993779,
            32.7671082
          ],
          [
            91.8989459,
            32.7662624
          ],
          [
            91.8984232,
            32.7654919
          ],
          [
            91.8970985,
            32.7635989
          ],
          [
            91.8957523,
            32.7617019
          ],
          [
            91.8950854,
            32.7607587
          ],
          [
            91.8944363,
            32.7597785
          ],
          [
            91.8941126,
            32.7592533
          ],
          [
            91.8938211,
            32.7587093
          ],
          [
            91.89335,
            32.757683
          ],
          [
            91.8895487,
            32.7491763
          ],
          [
            91.88495,
            32.7387
          ],
          [
            91.883117,
            32.7344
          ],
          [
            91.878867,
            32.72495
          ],
          [
            91.8786836,
            32.7243226
          ],
          [
            91.8786085,
            32.7236366
          ],
          [
            91.8786395,
            32.7229493
          ],
          [
            91.8790288,
            32.7205042
          ],
          [
            91.8790823,
            32.7198053
          ],
          [
            91.8788838,
            32.7193224
          ],
          [
            91.8785822,
            32.7187208
          ],
          [
            91.8780576,
            32.7177924
          ],
          [
            91.8778216,
            32.7172463
          ],
          [
            91.8776661,
            32.7166559
          ],
          [
            91.8771,
            32.71205
          ],
          [
            91.8770008,
            32.710986
          ],
          [
            91.8770081,
            32.709859
          ],
          [
            91.8771789,
            32.6991636
          ],
          [
            91.877183,
            32.6989072
          ]
        ]
      },
      "properties": {
        "name": "青藏铁路",
        "category": "road",
        "road_type": "铁路",
        "light_color": "带灯光",
        "routes": [],
        "note": "",
        "source": "OpenStreetMap",
        "osm_id": 35476714
      }
    }
  ],
  "properties": {
    "category": "road"
  }
}